{"type":"FeatureCollection","features":[{"type":"Feature","geometry":{"coordinates":[[[2.341844950596224,48.87153093561787],[2.342094848829625,48.87148929578323],[2.3420953735613255,48.87149071063122],[2.3421054042776084,48.87148903183597],[2.3421048644365143,48.871487625898396],[2.3421236646546117,48.871484495202075],[2.342124190841161,48.87148590286318],[2.342137061725192,48.87148376302502],[2.342136532789099,48.87148235714753],[2.342154925830255,48.871479297954295],[2.342155465808903,48.87148069310033],[2.3421664104511555,48.87147886643499],[2.342165867882019,48.8714774604827],[2.3421862419148938,48.87147407042259],[2.3421867955266262,48.87147546564339],[2.3421984764906116,48.871473520711426],[2.3421979488253615,48.87147212203593],[2.3425448961449633,48.87141511962464],[2.3427361395241424,48.871386092375424],[2.342938883831587,48.87136364277371],[2.3431174292328905,48.87132172062244],[2.343268758552275,48.871296659002155],[2.343764344064606,48.87121349727937],[2.343765252423093,48.87121682082439],[2.3439499647240605,48.871185795270286],[2.3439499617021933,48.871183978586735],[2.344360098792626,48.87111386671202],[2.3443624103962533,48.87111976105822],[2.344374679239466,48.87111767164246],[2.3443723703609227,48.871111777311455],[2.3444185410207856,48.87110391994899],[2.344420833907758,48.871107835643286],[2.3447939599796555,48.87104704358044],[2.344792591554221,48.87104311496681],[2.3450431170256683,48.87100097778079],[2.3450449426173754,48.87100519668194],[2.3453473688998896,48.87095459315941],[2.3455508850177336,48.870918880792026],[2.3457977917918336,48.87087798671507],[2.3459782583232367,48.87084517212254],[2.346450073139901,48.87076708288237],[2.3466090427404582,48.87073945157326],[2.3467144781366427,48.87072898857202],[2.3469249714365072,48.870691186810554],[2.346925471743481,48.87069249358362],[2.3470304402070914,48.87067391570803],[2.3470290451789704,48.87067024778304],[2.3474589417480933,48.870600137764214],[2.3474594008221366,48.870601363369666],[2.347464761169498,48.870600504044255],[2.3474642978930977,48.870599287409284],[2.3474878908569887,48.87059550029976],[2.3474883500668544,48.87059671511374],[2.347494210360167,48.87059577757181],[2.347493749922126,48.87059455195903],[2.347497207718964,48.87059397004949],[2.3474976915997696,48.87059343308317],[2.347696123075184,48.870561587094805],[2.3476977780759225,48.87056224363905],[2.3477768499596587,48.87054956214904],[2.348025939954357,48.8705072481248],[2.348218421523176,48.87046754370291],[2.348309230840385,48.87045150468501],[2.3486460097515747,48.87038399869857],[2.348714387675913,48.87036421296317],[2.3488458769572187,48.87033478516287],[2.34900686629531,48.87030143286219],[2.3491370355816543,48.87027386009682],[2.3493607025252836,48.870226801328705],[2.349529764891859,48.87019003964075],[2.349529525580956,48.87018955269639],[2.3495322172351636,48.870188964765894],[2.3495341735376782,48.87018743752515],[2.349553188638402,48.870183400295886],[2.349555323816196,48.870183924522905],[2.3495572785744545,48.870183503462094],[2.3495580380706884,48.87018502027986],[2.3496614874461823,48.870162383013685],[2.3497847384565036,48.870136360189974],[2.349965154593577,48.87010050674249],[2.3501460445839935,48.870059542845574],[2.3502895003682487,48.87002914418738],[2.3506128236544876,48.869960226808345],[2.3508624099966937,48.869907422370204],[2.350863658202526,48.869909983266595],[2.3508707959088535,48.86990848590282],[2.3508695586081862,48.86990592506562],[2.3509015355263196,48.869899155571865],[2.35090278239308,48.86990171466189],[2.3509099174827894,48.86990020828819],[2.3509086842812326,48.86989764657429],[2.350945231766045,48.8698899323656],[2.3509858894354543,48.869881350085315],[2.3510551981045738,48.86986672127999],[2.351101313649415,48.86985698771736],[2.3511681796542785,48.86984287441636],[2.351326959428344,48.869809362225304],[2.3516601532078956,48.8697599068769],[2.3517750242334303,48.869739635560826],[2.351776503955986,48.86974320496307],[2.3517848537271613,48.86974180404307],[2.351784551050098,48.869740930043555],[2.3517851792335254,48.86974084351149],[2.3517857928695163,48.86974072092706],[2.351786381052623,48.86974056223112],[2.3517869560292195,48.86974036928875],[2.3519520735022454,48.86967514386968],[2.352163320924431,48.869630089201266],[2.3522615659739015,48.86960930114209],[2.3522618706497713,48.869609905349115],[2.352410917004709,48.86957822496365],[2.3527019901096033,48.86951044228816],[2.3529418871560237,48.8694563463208],[2.3531392903128365,48.86941183203529],[2.35321169844623,48.8693955045889],[2.3532530516634402,48.86938617884459],[2.353338829890584,48.869366836127945],[2.3533709866266643,48.8693595848996],[2.353374970278459,48.86935869089201],[2.353417463583102,48.86934910864262],[2.3534970553843704,48.86933117853303],[2.3535809602933804,48.86931227609409],[2.3536718564086487,48.86929179883051],[2.3537588870193895,48.86927224763319],[2.353962254059786,48.86922688103792],[2.3543999559159245,48.869130232507906],[2.3544965348116857,48.869108324740616],[2.3544961359169747,48.86910762110353],[2.354498749064242,48.86910697867755],[2.354498160500117,48.86910595924829],[2.3545384935971976,48.869096958515804],[2.354539012751875,48.86909796857714],[2.3545411036232737,48.869097558061696],[2.35454055652171,48.86909649298989],[2.3547855856679734,48.86904213051621],[2.354817307410444,48.869035185927686],[2.3549204365118723,48.8690109568532],[2.354943204719131,48.869005854390224],[2.3549846708873434,48.868996604201094],[2.3550315040103516,48.86898615621708],[2.3550752859043738,48.86897638876323],[2.3551087193542224,48.868968930803476],[2.355140624108195,48.8689617317025],[2.3552196046731213,48.86894374499267],[2.3552201908846246,48.868944845346476],[2.3552262882675064,48.86894345003968],[2.3552257170619635,48.868942348867414],[2.355244282408676,48.86893811855061],[2.3552448829475208,48.86893927294194],[2.3552515537204513,48.86893770085444],[2.355250968871652,48.868936600508114],[2.3553823766616566,48.86890666145893],[2.3556516965656176,48.868846395253165],[2.35597279814453,48.86877372816805],[2.3559730112465824,48.86877413401811],[2.355999290333328,48.868768201267514],[2.355999076090169,48.86876777742455],[2.3561574161792254,48.86873192537011],[2.3561576783633664,48.868732441203484],[2.3561840396420353,48.86872647288081],[2.356183774731303,48.86872595703284],[2.356247131564025,48.86871162596321],[2.356248728958781,48.86871463115879],[2.356709479195201,48.86864499024094],[2.356707681729252,48.868639638494905],[2.3569073003959793,48.86861070918765],[2.3569085873181996,48.868614572476346],[2.3571192802631162,48.86858115524894],[2.3572910672214373,48.86855636566653],[2.3572904368172836,48.86855453482053],[2.3577603355631953,48.868485563130186],[2.3580581823418267,48.868441728948326],[2.3583330343679063,48.868399815853714],[2.358333456784737,48.86840104841679],[2.3583605394849805,48.868397126785624],[2.3583600653669134,48.86839577523243],[2.3586443444458016,48.86835357920416],[2.3589836390521803,48.86830441587784],[2.3591164118698806,48.868283773833056],[2.359321487415399,48.868254189821776],[2.35951752749554,48.86822458229105],[2.359745619189547,48.868192132205145],[2.3600088865555824,48.868152986221176],[2.3604455499146426,48.86808684357464],[2.3609018799421113,48.8680169938433],[2.3609020105899634,48.868017345283924],[2.360941511211379,48.86801136872979],[2.3609413940622055,48.86801102815336],[2.361050564993429,48.86799450913092],[2.36125088962636,48.86796452232983],[2.361818085853384,48.8678789835468],[2.3620405888911007,48.86784746698526],[2.362138740708173,48.86779360964766],[2.3621886047235323,48.86776387785441],[2.3621858527079325,48.86776184686615],[2.3621912500976583,48.86775858583837],[2.362192386362494,48.867759419287275],[2.362199059042538,48.86775543478994],[2.362198117086951,48.86775476425793],[2.362309603550138,48.86768665582597],[2.362311659148339,48.86768811471737],[2.3623431013099876,48.86766833304655],[2.362341666434928,48.867667282166195],[2.36246374095502,48.86759469192013],[2.362464982774325,48.86759558888274],[2.362469130942029,48.86759314678324],[2.3624695363587125,48.86759343673196],[2.3624740980650363,48.8675906209104],[2.3624735591514554,48.867590211537575],[2.3624907832140485,48.86758009036143],[2.3624915250561243,48.867580626722834],[2.3624961952602352,48.8675778564454],[2.3624940201255833,48.86757625122702],[2.3624964245496933,48.867574826886475],[2.3624971676668602,48.86757537044936],[2.3625030310345596,48.86757190324193],[2.3625042201321307,48.86757276394967],[2.362524632148901,48.86756057507538],[2.3625230284227463,48.86755939738998],[2.3627058932290432,48.867453856823374],[2.3627043125652682,48.86745268825651],[2.362728538397626,48.86743852311587],[2.362730565415156,48.867440089769204],[2.362738394609978,48.86743527681004],[2.3627374907106455,48.86743461547814],[2.3627656341225665,48.867417909864066],[2.3627667814041424,48.867418734373025],[2.36287531133745,48.86735304687559],[2.362878348143644,48.8673512985332],[2.3628808951950537,48.86734924540499],[2.362881960020727,48.86734811790299],[2.363304996063298,48.867096247510375],[2.364364680873214,48.86646430241969],[2.364398034185533,48.86644451055956],[2.3644000188023635,48.86644597803317],[2.3644036726600097,48.866443812935394],[2.364401470339783,48.866442200410944],[2.3644313729121187,48.86642445960192],[2.364433573869399,48.86642607211856],[2.3644371316490878,48.86642396047006],[2.3644349443227948,48.86642234802586],[2.3645122708214683,48.86637644161076],[2.364560276144525,48.8662931233269],[2.364561215410353,48.8662933441558],[2.3646929276758435,48.86607190134742],[2.36509401346477,48.86540454651508],[2.3650953460238213,48.86540493220747],[2.3652065975539,48.865225834520956],[2.3652884470180218,48.865086638422135],[2.365388775172436,48.86491653358128],[2.3654336435540904,48.86483838922746],[2.365560752853731,48.8646275024813],[2.3655579847739303,48.86462656957783],[2.3656379438217456,48.864500855104794],[2.365695561371184,48.864401957499716],[2.365746465843869,48.86431745695015],[2.3657477036840984,48.864317671258526],[2.3657945984015574,48.864239940377345],[2.3657949796644875,48.86424008629272],[2.365795401002965,48.86424018745328],[2.365795833902725,48.86424023471446],[2.365796282343279,48.86424023709083],[2.3657967231311425,48.86424019625813],[2.3657971468781347,48.864240099575795],[2.365797541207602,48.86423995597171],[2.3657978828819686,48.864239770718825],[2.3657981882141126,48.86423954750088],[2.3657984243595234,48.86423929693602],[2.365798589955238,48.86423901901701],[2.3657986475916,48.86423887542738],[2.365798704362951,48.86423857894479],[2.3657986846945436,48.86423829105061],[2.365798641465772,48.86423814692652],[2.3657985085554816,48.86423786742567],[2.3657983086590986,48.86423760375801],[2.3657980375123726,48.86423737029049],[2.3657977141540036,48.86423717072137],[2.3657973508514685,48.86423700511561],[2.365797144435497,48.86423694106774],[2.3657969406361783,48.864236886027136],[2.365796791117664,48.86423685105977],[2.365796479419141,48.864236813434275],[2.3658097059354617,48.86421486039369],[2.3658098670206478,48.864214952980326],[2.3658100281496246,48.864215041969864],[2.365810383624189,48.86421517875509],[2.365810572451836,48.86421523191762],[2.365810966704536,48.86421531854511],[2.3658112117234125,48.86421534682379],[2.365811456961341,48.864215357116706],[2.365811702418118,48.86421534942396],[2.365812155494923,48.86421530685765],[2.365812371424601,48.864215261235984],[2.365812757334714,48.8642151373728],[2.3658131123108728,48.86421497917067],[2.365813428218687,48.86421478298904],[2.365813676324753,48.864214557669094],[2.3658138703251863,48.86421429788744],[2.3658139525837996,48.86421414723357],[2.365814010329567,48.86421399465118],[2.3658140550523834,48.86421368011785],[2.3658140458996733,48.86421353617433],[2.3658139636407522,48.86421323895499],[2.3658136396913085,48.86421308794736],[2.3658136973439197,48.86421283104055],[2.365813577544041,48.864212706296264],[2.3658132817750555,48.864212479893055],[2.3658131058059504,48.864212378234114],[2.3658129296834804,48.86421228916513],[2.365812521072358,48.86421215029967],[2.3658123145469916,48.86421209524465],[2.3658120968765766,48.864212059916156],[2.365811879140376,48.86421202998337],[2.365811649005434,48.864212010777],[2.365811418651645,48.86421200955636],[2.3658118805521173,48.86421124216573],[2.36593216064476,48.86401107578571],[2.366084335958102,48.863758885666954],[2.366188628260997,48.86358632148428],[2.366189768227795,48.86358662430504],[2.366200502354774,48.863569064797275],[2.3662068181654092,48.8635587144162],[2.3662055558770616,48.86355838216879],[2.366292627401444,48.863414604616196],[2.366500745228682,48.86307271624679],[2.3665412242296284,48.862873585367794],[2.3665637553704073,48.86277880756079],[2.366579607565948,48.86271304413139],[2.3665877499601775,48.86267924397916],[2.3665916384576375,48.86266346846566],[2.3666022087771905,48.86262527257225],[2.3666150432012385,48.862578889331175],[2.366639175510419,48.86247672734392],[2.3666371743235715,48.86247651799776],[2.3666524399375968,48.8624108890372],[2.3666757312844973,48.86231734370037],[2.3667004084953978,48.86221339486444],[2.366758356946611,48.86197128026016],[2.3668336898018443,48.86165779914466],[2.3668510669272727,48.861588978714046],[2.3668515569415525,48.861589035267265],[2.3668590647035237,48.861557852400175],[2.366859950904907,48.86155794702325],[2.3668890291447964,48.861440052724625],[2.3669185437410785,48.861331891638926],[2.3669497684952163,48.861187414095305],[2.3669513209492092,48.861187531128415],[2.3669670710991078,48.86112537429595],[2.366974691671768,48.86110497606581],[2.367020428635563,48.86090696970398],[2.3670442566502845,48.86080021831377],[2.367050025790614,48.86077659511742],[2.367057176426,48.86074516930265],[2.367066418324222,48.86070440044449],[2.3670937531424343,48.86058699772555],[2.3671106616408557,48.86051630317575],[2.36713574558573,48.8604114937678],[2.3671632416199393,48.860296503004925],[2.3671857611161022,48.86020373305237],[2.3671817593495637,48.860203278405905],[2.3671843738345437,48.86020011933552],[2.367186580989643,48.86019683040391],[2.3671883452474307,48.86019342221509],[2.367189656630457,48.86018993069029],[2.3672270164574916,48.86004958909523],[2.3672357718491486,48.86001462740904],[2.367233824517993,48.860014480411635],[2.3672453412103116,48.8599575352955],[2.367247299355312,48.85995768954467],[2.3672584496337317,48.85991576158359],[2.3672571436480494,48.8599144326381],[2.3672869720824745,48.85979196706508],[2.3673572511889507,48.85949814593164],[2.3673765667196145,48.859416843609246],[2.3673852558354884,48.85938159824844],[2.367415875457764,48.859254875661236],[2.367433830719121,48.85918792780512],[2.3674505582672682,48.859117242958575],[2.3674709533743523,48.85903085779129],[2.3675061285584182,48.85888430341965],[2.3675205816166507,48.858824128894454],[2.367541442928046,48.85873794401416],[2.367543847973508,48.858726879455546],[2.3675562099685346,48.85867716047924],[2.3675602246386163,48.85865958775048],[2.3675617380658323,48.85865336956212],[2.3675700663522474,48.858620319365436],[2.3676115024646234,48.858445133073616],[2.3676210742168853,48.858404855081176],[2.3676221318936808,48.858400025774124],[2.3676387394687275,48.85833098602727],[2.3676422720103374,48.858316298550356],[2.3676647751566686,48.85822338706695],[2.3676742638560837,48.85818388116412],[2.3676793809536605,48.85816283826746],[2.3676844002415405,48.85814221754715],[2.3677596798496396,48.857832769022274],[2.367791454179176,48.85770317705435],[2.3678257963863194,48.857567612562974],[2.3678424388058863,48.85749498272177],[2.3678492925064285,48.857465149748776],[2.3678563032120197,48.857434058515345],[2.367857451019515,48.85742864959818],[2.367862599003147,48.857407070831265],[2.3678751897290518,48.8573540631554],[2.367883650494696,48.85731556444374],[2.3678941117415353,48.85727282237589],[2.3679257339293103,48.85713785229747],[2.3679441029092265,48.857061740261244],[2.3679738200784572,48.856931437599975],[2.367976777908818,48.85693175360513],[2.367977910119574,48.85692695436101],[2.3679764440643454,48.85692680362123],[2.367982206820934,48.85690217569488],[2.3679836864931016,48.85690232740593],[2.367984796973284,48.85689752175143],[2.3679818308367806,48.856897216494794],[2.368012202382056,48.85677913222774],[2.368032252705993,48.856697086132286],[2.3680852978665365,48.85647560011729],[2.3680986423483072,48.85642198839579],[2.3682371859101807,48.85585359052405],[2.3682718121456623,48.8557218314432],[2.3682832893534744,48.85567426603454],[2.3682788510059676,48.85567376414873],[2.3682949456308786,48.855611591580804],[2.3683085606037597,48.85555170825454],[2.3683122376731234,48.85555193631533],[2.3683571432079993,48.855363343015],[2.3683763870911845,48.85528207404186],[2.368399818627357,48.855179817429594],[2.36839504332636,48.85517923282755],[2.368406831811958,48.855128680485194],[2.3684153685108287,48.855095660909186],[2.3684184991188437,48.85509576916702],[2.3684297453030676,48.85504711428493],[2.3684279634339895,48.85504659944476],[2.368439915104445,48.854998208195745],[2.3684441903583635,48.8549800027151],[2.3684805380607874,48.85484049386015],[2.3685006123123054,48.85477602999207],[2.3685021791719225,48.85462099550996],[2.3685376624961636,48.85462385204454],[2.368556161774383,48.854521321094424],[2.368594151818619,48.854365671163364],[2.368627106986048,48.85421937486992],[2.3686220583191657,48.85411167515583],[2.3686051014942273,48.85387931639581],[2.368355159011093,48.85368907577462],[2.368340405334119,48.853656538476635],[2.368341879354865,48.85365624947181],[2.368328061369666,48.853625785620565],[2.368326587349705,48.85362607462522],[2.3682760434956656,48.85351465685636],[2.3682774465183667,48.85351437826969],[2.368262993912432,48.853482533248545],[2.368261588143139,48.85348281361924],[2.3682464352083943,48.85344938203764],[2.3682422359569584,48.85345019536449],[2.368242701425435,48.853446987134596],[2.3682427405573776,48.85344375956603],[2.368242359752348,48.85344054686791],[2.368241553450364,48.85343735800445],[2.3682403251727737,48.853434239760524],[2.3682387007139676,48.853431200366515],[2.368116325339513,48.85316304990683],[2.368033592985639,48.852981335874055],[2.3678549537051454,48.852585034935956],[2.3677774569961203,48.8524130442088],[2.367778753611354,48.85241277226045],[2.367770718811112,48.85239499366258],[2.3677694086780465,48.852395256545904],[2.3677366382992355,48.85232281496243],[2.3677379457052417,48.85232255206504],[2.367729675851304,48.85230426768363],[2.3677283766221278,48.85230453062414],[2.36769072108146,48.852221722442955],[2.3676920311014347,48.852221468553395],[2.367682177090082,48.8521998643764],[2.367680866961476,48.85220012725878],[2.3676182334704983,48.852062895776584],[2.367620406519049,48.852062386536005],[2.3676077924041508,48.852034869801855],[2.3676055956476683,48.852035199046256],[2.367469744954805,48.851738053117174],[2.3674029435635293,48.85159140927254],[2.3674004271402,48.85159191579452],[2.3673549031298,48.85148806413531],[2.3673582345263435,48.851487443208676],[2.367349369172527,48.851468616024796],[2.367346569071331,48.85146914083152],[2.3673444881608483,48.85146453233131],[2.3673457544257928,48.8514642890064],[2.3671218382840524,48.85097153763745],[2.367083322885014,48.85088675142385],[2.366899440294307,48.85048159962881],[2.3668284856232042,48.85032924038762],[2.366741160521555,48.850131688185215],[2.3667251212198317,48.850095996925404],[2.3666773321252568,48.84999473290166],[2.3666619917370677,48.84996085752879],[2.3666019780110323,48.849826488235195],[2.3665803393500857,48.84977812866153],[2.366559775734474,48.849732812795814],[2.3665352387602616,48.84967872156169],[2.3665092004816564,48.84962145933739],[2.366480479183639,48.84955902689229],[2.3664571483460413,48.849508302911175],[2.366448103097474,48.84948885861236],[2.3664383679661403,48.849468321539696],[2.3663452928096667,48.8492571671523],[2.3662013228157317,48.84894441170736],[2.3661965466388626,48.848933640000304],[2.3661917244865744,48.848923847448134],[2.3661912996225083,48.84892393423367],[2.3661744706656083,48.84888734831161],[2.3661760825182174,48.84888703308239],[2.366118659259297,48.848759819814],[2.3661173628355763,48.848760082752285],[2.366105976274202,48.84873585492375],[2.3661051609781083,48.848734654460344],[2.3661064555797084,48.848733645046856],[2.3661068975896975,48.84873304482001],[2.3661071792353114,48.84873240866868],[2.3661072826054914,48.848731752686284],[2.366107222568653,48.84873108684458],[2.366091058105181,48.848695897527286],[2.3660909520589715,48.848695653239865],[2.3660908172771236,48.84869541869311],[2.366090644232175,48.848695192937214],[2.3660904410997685,48.848694976015416],[2.36609021322114,48.848694776949664],[2.3660899566179148,48.84869458672525],[2.3660896849161626,48.848694405414456],[2.3660893869962387,48.84869425094538],[2.3660890765938105,48.848694114397304],[2.3660887374776243,48.84869398579131],[2.3660883843959404,48.84869388499138],[2.366088031095468,48.84869380217739],[2.366087648851507,48.84869374619077],[2.3660876240553654,48.84869365612375],[2.366039350071948,48.84858877102446],[2.3660405398782274,48.84858853450279],[2.3660381809882933,48.848583271561],[2.366039654790784,48.848582989777654],[2.3659987473789545,48.84849360092357],[2.3656953160097247,48.847827623398],[2.365510161539696,48.84754963511685],[2.3652312634787904,48.847415820671024],[2.365071806657435,48.84737737690367],[2.364962392842899,48.84736156737483],[2.364875705366741,48.84737443299307],[2.363933473042907,48.848005244134086],[2.3635872995079867,48.8482451656615],[2.3630260833627243,48.84861529250548],[2.3616706482289715,48.849537046113674],[2.3616413851621476,48.84957115544911],[2.361614796932222,48.849622411779364],[2.361517119719378,48.8498255802814],[2.3615145775293804,48.8500330633641],[2.361488688437459,48.85073346455372],[2.361476746604234,48.85100181330778],[2.3614761793521493,48.85128354933585],[2.361471444361997,48.851669962285676],[2.3612584893026143,48.8519282020858],[2.3610542184724106,48.85204608878464],[2.3609586979627584,48.85211696488388],[2.3608361352719043,48.85218769645048],[2.3606319719523627,48.85229665959672],[2.3603060848361284,48.85240794674141],[2.359957478139776,48.852533983178986],[2.3597582580951673,48.85260727771102],[2.35926014997976,48.85279497486385],[2.3591424557741845,48.85283598642372],[2.358861632166245,48.85294751096547],[2.3586171924384214,48.85303245882482],[2.358336401918149,48.853141007242215],[2.358005923349989,48.85325821179278],[2.35771615373153,48.85336373640774],[2.357602891685287,48.8534107194585],[2.356928478425591,48.853639102031295],[2.3563219968681213,48.85384107699915],[2.3558918393971506,48.85399938126845],[2.3556564046447774,48.854084371525076],[2.3551854578451166,48.85426030034305],[2.355054014736399,48.854319080526494],[2.354845766155,48.85439231907095],[2.3547233739846822,48.854448172629134],[2.353713119733347,48.854859140372675],[2.353491013322214,48.85495907092076],[2.352847670317828,48.85522329173922],[2.3525256267849755,48.85538514265139],[2.3523400167197077,48.85544957593034],[2.351909944856532,48.85559894288602],[2.351235070953248,48.855860010033474],[2.3509858018917593,48.85596871198744],[2.350753923370087,48.8560403834343],[2.3505546843771614,48.85617386415408],[2.349603773427147,48.856547169953316],[2.349096614394625,48.856731800284635],[2.34820081526462,48.856994622441114],[2.347264030462263,48.85728993271089],[2.3466626099521903,48.85744132098837],[2.3455456252707543,48.85772671043841],[2.3444555970409864,48.858018186335855],[2.343473922846316,48.85829537424849],[2.342791083108033,48.85846711720081],[2.3421937313991497,48.858651223719384],[2.341574889679619,48.858751924666755],[2.3400125055543444,48.85905840812562],[2.3391089076771543,48.85918413729494],[2.3380254665571214,48.85930664354347],[2.336689658847262,48.85942298295872],[2.334960807313473,48.859817908214],[2.333587819612522,48.86012431702348],[2.333123320504055,48.860245517788606],[2.3317200653591605,48.86055654712564],[2.331532119212251,48.86058881114933],[2.330594487600815,48.86074879136145],[2.3299470080312554,48.86101778052565],[2.3286211472193115,48.86147673883298],[2.3252673400999404,48.8625762571376],[2.3216539537652046,48.86377411064355],[2.3215733846457347,48.863917016348196],[2.3220665801362026,48.86454930065369],[2.3224587861334833,48.865052102905146],[2.322571920822688,48.865202568256386],[2.3226531984039895,48.86530747483766],[2.3227385760917483,48.86541767202808],[2.322914482094974,48.865644713617904],[2.323076151452875,48.86585337986807],[2.323232837404855,48.866055609832024],[2.3234466750906098,48.86633161131998],[2.3234955669517476,48.86639514228578],[2.323520087340753,48.86642700351115],[2.3235399090475473,48.866452759494535],[2.322300768599349,48.8668418663598],[2.322319538041799,48.86687397045721],[2.3224413295733997,48.86705821103696],[2.3224445274266228,48.867058229140284],[2.322476090512279,48.86704926596985],[2.3227228610458486,48.86737767810434],[2.3232895042918766,48.86815200850378],[2.3233476537428186,48.86823004692188],[2.3234167110537447,48.86824801949463],[2.3234728743365087,48.86823286464004],[2.3235422932962435,48.8683461301205],[2.3238920012021946,48.86882438883805],[2.3240742263992846,48.8690757782834],[2.324133205146275,48.86909017617169],[2.3246262489258265,48.86892523253765],[2.3248415282127772,48.869217596104036],[2.3253781494279275,48.86930482290498],[2.3254103574964344,48.86931075573632],[2.3254627899767315,48.869319821633134],[2.325841640090497,48.8693843381315],[2.3261710668497093,48.86944033721102],[2.326505565297189,48.86949720929741],[2.326796101064365,48.869546212151754],[2.326881381090222,48.86956052546821],[2.3279010438175107,48.86973428325043],[2.327982144212033,48.869664303883894],[2.328133595674766,48.869647316547635],[2.3282596069182766,48.869657288843634],[2.3283681420926388,48.86973410462664],[2.3284076410661263,48.869823080595445],[2.3287719714540556,48.86988430012212],[2.329814821738948,48.870063096308776],[2.3298144806242416,48.870063966760945],[2.3298826490006355,48.87007583932415],[2.3298830012511527,48.87007495094734],[2.330119984411551,48.870116486177835],[2.330119434635029,48.870117787147265],[2.3301339022167293,48.87012040875763],[2.330359451991819,48.87015970761132],[2.3309954085808626,48.870266389602655],[2.330994551900949,48.87026866014988],[2.331000370362562,48.87026962079175],[2.3309993701556735,48.87027223948158],[2.331064227789557,48.870282931811445],[2.3310652293334084,48.8702803149273],[2.331072903406969,48.87028158092022],[2.3310737782902393,48.870279272701815],[2.331241485992419,48.8703086119583],[2.3313562369384524,48.87032763379246],[2.3319725376735723,48.870432066611144],[2.3327644828377907,48.87056799824142],[2.3329523415772018,48.87059971015545],[2.333298919549267,48.87066065318651],[2.3334896378825034,48.870692676961475],[2.333654328820731,48.87072028726407],[2.334030458395776,48.87078514652215],[2.3341529376016106,48.870806378764726],[2.3345882491963437,48.87087948416193],[2.3346008610232127,48.870881201865856],[2.3349302306346544,48.870936724870226],[2.335443591313709,48.87102552798898],[2.335572611625771,48.8710479219584],[2.3356633870273087,48.871063690327226],[2.3357192205101973,48.87107360066484],[2.335789827109622,48.87108691332173],[2.3358828331599044,48.87110213630959],[2.3360259352081307,48.87112733471775],[2.3360596499882225,48.87113342860463],[2.336060032143598,48.87113243245596],[2.336087195386992,48.8711369862965],[2.336086629342795,48.87113850484164],[2.3361001505769785,48.87114097388362],[2.336101016403322,48.871139359872345],[2.336128864527229,48.87114398225458],[2.3361281844538095,48.87114567643827],[2.336142616516891,48.87114802821676],[2.33614332364788,48.87114635037121],[2.3361716644304584,48.871150506019795],[2.3361709119100484,48.87115275019854],[2.3361859154163125,48.8711552993986],[2.336186648012783,48.871153441825854],[2.3362129278898336,48.87115799253731],[2.3362123850227725,48.87115972525466],[2.3362264088376388,48.87116223304303],[2.3362275646720794,48.871160327454],[2.336253258074508,48.87116489828711],[2.336252783232058,48.87116664217395],[2.336267681927916,48.87116907206948],[2.3362699888538336,48.8711676657018],[2.3362985149740054,48.87117236375104],[2.336297681021104,48.87117447257787],[2.336316970725869,48.87117788371337],[2.3363163240864946,48.87117930828117],[2.336327613788874,48.871181227118214],[2.336328177500797,48.87117978410374],[2.33636328614439,48.87118573274492],[2.3363627085720102,48.87118719366952],[2.3363740635061783,48.87118912905196],[2.3363746290383283,48.87118765007375],[2.336428347738342,48.87119674704051],[2.336427751873007,48.871198252831014],[2.3364387449746564,48.87120012504619],[2.3364399354896404,48.871198707090194],[2.336474704224446,48.871204585464206],[2.3364741119688563,48.87120612904727],[2.3364854696376747,48.87120806443423],[2.3364860075703593,48.871206504361844],[2.336506372203581,48.871209867464756],[2.3365078944021183,48.871207240833975],[2.336535693373992,48.87121219560449],[2.33653402329587,48.8712147656568],[2.336548140607263,48.87121710664803],[2.33654922762734,48.87121439486529],[2.336577421712113,48.87121958384595],[2.3365763789456593,48.87122192534583],[2.33658998234984,48.87122426168504],[2.3365911573251488,48.871221922716515],[2.3366202698036598,48.871226828988064],[2.3366194348550504,48.87122901695342],[2.336632985532649,48.87123131882054],[2.3366338594754175,48.8712290663187],[2.336661988873242,48.87123376927677],[2.3366610400358887,48.871236336133066],[2.3366753511769867,48.871238766318726],[2.33667625980421,48.87123614527909],[2.336704738951863,48.87124121889498],[2.3367038356056464,48.871243532389556],[2.3367166180995462,48.871245991871604],[2.336717933091076,48.871243470212285],[2.336744812647974,48.87124804211594],[2.3367437990777704,48.87125044673277],[2.3367788901753053,48.87125649588009],[2.336779422524115,48.87125548077602],[2.336804173421752,48.871258916695766],[2.336805429983691,48.87125787862402],[2.336809127981654,48.87125846749644],[2.336811577942114,48.87125685506262],[2.336818517916696,48.871258728168854],[2.33682571135644,48.871260181787534],[2.3368330615866864,48.87126120638959],[2.3368405115355206,48.871261787269354],[2.336841397333064,48.871263635825414],[2.3368445085360463,48.87126373400305],[2.336845621347505,48.871265206093724],[2.337096035617781,48.87131446869725],[2.3371017396976943,48.87131565054401],[2.3371075774955483,48.87131650217369],[2.3371135014244535,48.87131701342998],[2.337119487072069,48.87131717428493],[2.3371254592436537,48.871317001409565],[2.337131385416362,48.87131647933497],[2.3371372149561576,48.8713156230696],[2.3372957067070677,48.87134312024874],[2.337375674340519,48.871356883096965],[2.337582200310308,48.87139187559286],[2.3377819816115277,48.87142573501879],[2.3381800829300623,48.871495644569954],[2.338358325165778,48.8715262308456],[2.339866132457411,48.871786560007735],[2.340058538917245,48.871821774306056],[2.340071340911162,48.87181959743697],[2.3400711182719323,48.87181898465835],[2.3400738683791475,48.87181853306298],[2.340421024797642,48.871761001046856],[2.3406076951399157,48.87173069741544],[2.3414688600969202,48.87159089278431],[2.341623920133518,48.871565150482],[2.341844950596224,48.87153093561787]]],"type":"Polygon"},"properties":{"objectid":1,"arrete":"2024P16495","date_arret":"2024-10-21T02:00:00+00:00","url_arrete":"https:\/\/bovp.apps.paris.fr\/doc_num_data.php?explnum_id=31507","perimetr":9971,"id":"ZTL_1","geo_point_2d":{"lon":2.3482215129506177,"lat":48.862516372284624}}}]}